STARLINK-2225           
1 48574U 21041X   26057.22557440  .00004938  00000+0  35028-3 0  9999
2 48574  53.0549 153.1696 0001435 104.4056 255.7092 15.06389191263891
STARLINK-2227           
1 48575U 21041Y   26057.25002315  .00039501  00000+0  13735-2 0  9993
2 48575  53.1566 141.3354 0001072  91.8751 315.3176 15.29365477  5830
STARLINK-2228           
1 48576U 21041Z   26057.25118206  .00004300  00000+0  15724-3 0  9991
2 48576  53.1599 154.1416 0001577  84.5733 275.5447 15.30196702263892
STARLINK-2231           
1 48577U 21041AA  26056.49487247 -.00009774  00000+0 -31843-3 0  9993
2 48577  53.1590 183.5304 0001236  51.8418 308.2694 15.30188268263408
STARLINK-2232           
1 48578U 21041AB  26057.23966130  .00008040  00000+0  28329-3 0  9998
2 48578  53.1581 179.8858 0001253  96.9886 263.1258 15.30201716263521
STARLINK-2234           
1 48580U 21041AD  26057.27856191  .00003709  00000+0  13731-3 0  9998
2 48580  53.1639 154.0116 0001515  91.6567 268.4608 15.30197268263892
STARLINK-2235           
1 48581U 21041AE  26057.23154047  .00001652  00000+0  12978-3 0  9993
2 48581  53.0572 148.0684 0001722  90.7930 269.3257 15.06395792263979
STARLINK-2236           
1 48582U 21041AF  26057.21312815  .00000471  00000+0  50495-4 0  9996
2 48582  53.0559 148.3058 0001296  80.6180 279.4956 15.06394686263962
STARLINK-2237           
1 48583U 21041AG  26056.75375060 -.00001406  00000+0 -75520-4 0  9993
2 48583  53.0552 195.2002 0001354  89.2432 270.8713 15.06387100263268
STARLINK-2238           
1 48584U 21041AH  26056.79428507  .00001174  00000+0  97736-4 0  9996
2 48584  53.0528 195.0163 0001551 109.1907 250.9250 15.06387366263265
STARLINK-2241           
1 48586U 21041AK  26056.79797290  .00000595  00000+0  58802-4 0  9993
2 48586  53.0554 195.0009 0001281  93.2398 266.8738 15.06403740263264
STARLINK-2245           
1 48589U 21041AN  26056.73499654  .00055611  00000+0  18935-2 0  9993
2 48589  53.1592 182.2596 0002765 106.7449 253.3855 15.29892780263446
STARLINK-2249           
1 48592U 21041AR  26056.79063160  .00000339  00000+0  41675-4 0  9998
2 48592  53.0563 195.2638 0001166  97.0314 263.0808 15.06401425263268
STARLINK-2250           
1 48593U 21041AS  26057.25002315  .01430707  00000+0  64882-1 0  9995
2 48593  53.1011 192.7583 0001365 107.6882  63.5952 15.17329547  5834
STARLINK-2251           
1 48594U 21041AT  26056.67174431  .00003253  00000+0  23721-3 0  9990
2 48594  53.0547 165.6565 0001315  81.6716 278.4422 15.06395392263675
STARLINK-2252           
1 48595U 21041AU  26056.82377763  .00000338  00000+0  41582-4 0  9998
2 48595  53.0522 194.8855 0001374  96.9423 263.1722 15.06400030264541
