[{"OBJECT_NAME":"STARLINK-2225","OBJECT_ID":"2021-041X","EPOCH":"2026-02-26T05:24:49.628160","MEAN_MOTION":15.06389191,"ECCENTRICITY":0.00014358,"INCLINATION":53.0549,"RA_OF_ASC_NODE":153.1696,"ARG_OF_PERICENTER":104.4056,"MEAN_ANOMALY":255.7092,"EPHEMERIS_TYPE":0,"CLASSIFICATION_TYPE":"U","NORAD_CAT_ID":48574,"ELEMENT_SET_NO":999,"REV_AT_EPOCH":26389,"BSTAR":0.00035028126,"MEAN_MOTION_DOT":4.938e-5,"MEAN_MOTION_DDOT":0},{"OBJECT_NAME":"STARLINK-2227","OBJECT_ID":"2021-041Y","EPOCH":"2026-02-26T06:00:02.000160","MEAN_MOTION":15.29365477,"ECCENTRICITY":0.00010725,"INCLINATION":53.1566,"RA_OF_ASC_NODE":141.3354,"ARG_OF_PERICENTER":91.8751,"MEAN_ANOMALY":315.3176,"EPHEMERIS_TYPE":0,"CLASSIFICATION_TYPE":"U","NORAD_CAT_ID":48575,"ELEMENT_SET_NO":999,"REV_AT_EPOCH":583,"BSTAR":0.0013735302,"MEAN_MOTION_DOT":0.00039501,"MEAN_MOTION_DDOT":0},{"OBJECT_NAME":"STARLINK-2228","OBJECT_ID":"2021-041Z","EPOCH":"2026-02-26T06:01:42.129984","MEAN_MOTION":15.30196702,"ECCENTRICITY":0.00015773,"INCLINATION":53.1599,"RA_OF_ASC_NODE":154.1416,"ARG_OF_PERICENTER":84.5733,"MEAN_ANOMALY":275.5447,"EPHEMERIS_TYPE":0,"CLASSIFICATION_TYPE":"U","NORAD_CAT_ID":48576,"ELEMENT_SET_NO":999,"REV_AT_EPOCH":26389,"BSTAR":0.00015723668,"MEAN_MOTION_DOT":4.3e-5,"MEAN_MOTION_DDOT":0},{"OBJECT_NAME":"STARLINK-2231","OBJECT_ID":"2021-041AA","EPOCH":"2026-02-25T11:52:36.981408","MEAN_MOTION":15.30188268,"ECCENTRICITY":0.00012369,"INCLINATION":53.159,"RA_OF_ASC_NODE":183.5304,"ARG_OF_PERICENTER":51.8418,"MEAN_ANOMALY":308.2694,"EPHEMERIS_TYPE":0,"CLASSIFICATION_TYPE":"U","NORAD_CAT_ID":48577,"ELEMENT_SET_NO":999,"REV_AT_EPOCH":26340,"BSTAR":-0.0003184272,"MEAN_MOTION_DOT":-9.774e-5,"MEAN_MOTION_DDOT":0},{"OBJECT_NAME":"STARLINK-2232","OBJECT_ID":"2021-041AB","EPOCH":"2026-02-26T05:45:06.736320","MEAN_MOTION":15.30201716,"ECCENTRICITY":0.00012536,"INCLINATION":53.1581,"RA_OF_ASC_NODE":179.8858,"ARG_OF_PERICENTER":96.9886,"MEAN_ANOMALY":263.1258,"EPHEMERIS_TYPE":0,"CLASSIFICATION_TYPE":"U","NORAD_CAT_ID":48578,"ELEMENT_SET_NO":999,"REV_AT_EPOCH":26352,"BSTAR":0.00028328602,"MEAN_MOTION_DOT":8.04e-5,"MEAN_MOTION_DDOT":0},{"OBJECT_NAME":"STARLINK-2234","OBJECT_ID":"2021-041AD","EPOCH":"2026-02-26T06:41:07.749024","MEAN_MOTION":15.30197268,"ECCENTRICITY":0.00015158,"INCLINATION":53.1639,"RA_OF_ASC_NODE":154.0116,"ARG_OF_PERICENTER":91.6567,"MEAN_ANOMALY":268.4608,"EPHEMERIS_TYPE":0,"CLASSIFICATION_TYPE":"U","NORAD_CAT_ID":48580,"ELEMENT_SET_NO":999,"REV_AT_EPOCH":26389,"BSTAR":0.00013730691,"MEAN_MOTION_DOT":3.709e-5,"MEAN_MOTION_DDOT":0},{"OBJECT_NAME":"STARLINK-2235","OBJECT_ID":"2021-041AE","EPOCH":"2026-02-26T05:33:25.096608","MEAN_MOTION":15.06395792,"ECCENTRICITY":0.00017222,"INCLINATION":53.0572,"RA_OF_ASC_NODE":148.0684,"ARG_OF_PERICENTER":90.793,"MEAN_ANOMALY":269.3257,"EPHEMERIS_TYPE":0,"CLASSIFICATION_TYPE":"U","NORAD_CAT_ID":48581,"ELEMENT_SET_NO":999,"REV_AT_EPOCH":26397,"BSTAR":0.00012977775,"MEAN_MOTION_DOT":1.652e-5,"MEAN_MOTION_DDOT":0},{"OBJECT_NAME":"STARLINK-2236","OBJECT_ID":"2021-041AF","EPOCH":"2026-02-26T05:06:54.272160","MEAN_MOTION":15.06394686,"ECCENTRICITY":0.00012963,"INCLINATION":53.0559,"RA_OF_ASC_NODE":148.3058,"ARG_OF_PERICENTER":80.618,"MEAN_ANOMALY":279.4956,"EPHEMERIS_TYPE":0,"CLASSIFICATION_TYPE":"U","NORAD_CAT_ID":48582,"ELEMENT_SET_NO":999,"REV_AT_EPOCH":26396,"BSTAR":5.0495494e-5,"MEAN_MOTION_DOT":4.71e-6,"MEAN_MOTION_DDOT":0},{"OBJECT_NAME":"STARLINK-2237","OBJECT_ID":"2021-041AG","EPOCH":"2026-02-25T18:05:24.051840","MEAN_MOTION":15.063871,"ECCENTRICITY":0.00013549,"INCLINATION":53.0552,"RA_OF_ASC_NODE":195.2002,"ARG_OF_PERICENTER":89.2432,"MEAN_ANOMALY":270.8713,"EPHEMERIS_TYPE":0,"CLASSIFICATION_TYPE":"U","NORAD_CAT_ID":48583,"ELEMENT_SET_NO":999,"REV_AT_EPOCH":26326,"BSTAR":-7.5519931e-5,"MEAN_MOTION_DOT":-1.406e-5,"MEAN_MOTION_DDOT":0},{"OBJECT_NAME":"STARLINK-2238","OBJECT_ID":"2021-041AH","EPOCH":"2026-02-25T19:03:46.230048","MEAN_MOTION":15.06387366,"ECCENTRICITY":0.00015518,"INCLINATION":53.0528,"RA_OF_ASC_NODE":195.0163,"ARG_OF_PERICENTER":109.1907,"MEAN_ANOMALY":250.925,"EPHEMERIS_TYPE":0,"CLASSIFICATION_TYPE":"U","NORAD_CAT_ID":48584,"ELEMENT_SET_NO":999,"REV_AT_EPOCH":26326,"BSTAR":9.77358e-5,"MEAN_MOTION_DOT":1.174e-5,"MEAN_MOTION_DDOT":0},{"OBJECT_NAME":"STARLINK-2241","OBJECT_ID":"2021-041AK","EPOCH":"2026-02-25T19:09:04.858560","MEAN_MOTION":15.0640374,"ECCENTRICITY":0.00012817,"INCLINATION":53.0554,"RA_OF_ASC_NODE":195.0009,"ARG_OF_PERICENTER":93.2398,"MEAN_ANOMALY":266.8738,"EPHEMERIS_TYPE":0,"CLASSIFICATION_TYPE":"U","NORAD_CAT_ID":48586,"ELEMENT_SET_NO":999,"REV_AT_EPOCH":26326,"BSTAR":5.8801904e-5,"MEAN_MOTION_DOT":5.95e-6,"MEAN_MOTION_DDOT":0},{"OBJECT_NAME":"STARLINK-2245","OBJECT_ID":"2021-041AN","EPOCH":"2026-02-25T17:38:23.701056","MEAN_MOTION":15.2989278,"ECCENTRICITY":0.00027657,"INCLINATION":53.1592,"RA_OF_ASC_NODE":182.2596,"ARG_OF_PERICENTER":106.7449,"MEAN_ANOMALY":253.3855,"EPHEMERIS_TYPE":0,"CLASSIFICATION_TYPE":"U","NORAD_CAT_ID":48589,"ELEMENT_SET_NO":999,"REV_AT_EPOCH":26344,"BSTAR":0.0018934724,"MEAN_MOTION_DOT":0.00055611,"MEAN_MOTION_DDOT":0},{"OBJECT_NAME":"STARLINK-2249","OBJECT_ID":"2021-041AR","EPOCH":"2026-02-25T18:58:30.570240","MEAN_MOTION":15.06401425,"ECCENTRICITY":0.00011662,"INCLINATION":53.0563,"RA_OF_ASC_NODE":195.2638,"ARG_OF_PERICENTER":97.0314,"MEAN_ANOMALY":263.0808,"EPHEMERIS_TYPE":0,"CLASSIFICATION_TYPE":"U","NORAD_CAT_ID":48592,"ELEMENT_SET_NO":999,"REV_AT_EPOCH":26326,"BSTAR":4.1675062e-5,"MEAN_MOTION_DOT":3.39e-6,"MEAN_MOTION_DDOT":0},{"OBJECT_NAME":"STARLINK-2250","OBJECT_ID":"2021-041AS","EPOCH":"2026-02-26T06:00:02.000160","MEAN_MOTION":15.17329547,"ECCENTRICITY":0.00013659,"INCLINATION":53.1011,"RA_OF_ASC_NODE":192.7583,"ARG_OF_PERICENTER":107.6882,"MEAN_ANOMALY":63.5952,"EPHEMERIS_TYPE":0,"CLASSIFICATION_TYPE":"U","NORAD_CAT_ID":48593,"ELEMENT_SET_NO":999,"REV_AT_EPOCH":583,"BSTAR":0.064881733,"MEAN_MOTION_DOT":0.01430707,"MEAN_MOTION_DDOT":0},{"OBJECT_NAME":"STARLINK-2251","OBJECT_ID":"2021-041AT","EPOCH":"2026-02-25T16:07:18.708384","MEAN_MOTION":15.06395392,"ECCENTRICITY":0.00013155,"INCLINATION":53.0547,"RA_OF_ASC_NODE":165.6565,"ARG_OF_PERICENTER":81.6716,"MEAN_ANOMALY":278.4422,"EPHEMERIS_TYPE":0,"CLASSIFICATION_TYPE":"U","NORAD_CAT_ID":48594,"ELEMENT_SET_NO":999,"REV_AT_EPOCH":26367,"BSTAR":0.00023721258,"MEAN_MOTION_DOT":3.253e-5,"MEAN_MOTION_DDOT":0},{"OBJECT_NAME":"STARLINK-2252","OBJECT_ID":"2021-041AU","EPOCH":"2026-02-25T19:46:14.387232","MEAN_MOTION":15.0640003,"ECCENTRICITY":0.00013741,"INCLINATION":53.0522,"RA_OF_ASC_NODE":194.8855,"ARG_OF_PERICENTER":96.9423,"MEAN_ANOMALY":263.1722,"EPHEMERIS_TYPE":0,"CLASSIFICATION_TYPE":"U","NORAD_CAT_ID":48595,"ELEMENT_SET_NO":999,"REV_AT_EPOCH":26454,"BSTAR":4.1581909e-5,"MEAN_MOTION_DOT":3.38e-6,"MEAN_MOTION_DDOT":0}]
